#aV2006  9 22  0  0   .00000000      96 DD+AD WGS84 FIT  NGA
## 1393 432000.00000000   900.00000000 54000  .0000000000000
+   29     1  2  3  4  5  6  7  8  9 10 11 13 14 15 16 17 18
+         19 20 21 22 23 24 25 26 27 28 29 30  0  0  0  0  0
+          0  0  0  0  0  0  0  0  0  0  0  0  0  0  0  0  0
+          0  0  0  0  0  0  0  0  0  0  0  0  0  0  0  0  0
+          0  0  0  0  0  0  0  0  0  0  0  0  0  0  0  0  0
++         0  0  0  0  0  0  0  0  0  0  0  0  0  0  0  0  0
++         0  0  0  0  0  0  0  0  0  0  0  0  0  0  0  0  0
++         0  0  0  0  0  0  0  0  0  0  0  0  0  0  0  0  0
++         0  0  0  0  0  0  0  0  0  0  0  0  0  0  0  0  0
++         0  0  0  0  0  0  0  0  0  0  0  0  0  0  0  0  0
%c cc cc ccc ccc cccc cccc cccc cccc ccccc ccccc ccccc ccccc
%c cc cc ccc ccc cccc cccc cccc cccc ccccc ccccc ccccc ccccc
%f  0.0000000  0.000000000  0.00000000000  0.000000000000000
%f  0.0000000  0.000000000  0.00000000000  0.000000000000000
%i    0    0    0    0      0      0      0      0         0
%i    0    0    0    0      0      0      0      0         0
/*      NGA, ST. LOUIS,MO.                                  
/*   EPHEMERIS COMPUTED FROM  3 DAYS OF DATA                
/* CCCCCCCCCCCCCCCCCCCCCCCCCCCCCCCCCCCCCCCCCCCCCCCCCCCCCCCCC
/* CCCCCCCCCCCCCCCCCCCCCCCCCCCCCCCCCCCCCCCCCCCCCCCCCCCCCCCCC
*  2006  9 22 12 45   .00000000                                                 
P  1 -13336.372735 -14121.120728  18344.734484     78.181317                    
V  1  22706.218982   2272.809738  18394.387390       .022112                    
P  2  13093.052030  23042.436983  -3370.506428     37.436531                    
V  2  -1051.423573   4831.648825  30948.853255       .038595                    
P  3 -18070.069911 -11963.854798 -15743.209741    151.737489                    
V  3  19660.774577  -2224.152562 -20797.059492       .727255                    
P  4   3686.127797  24582.788418   8798.168100    313.778069                    
V  4  -7455.129491  -9156.238305  28923.317843       .055597                    
P  5  18362.736478  -4363.754617  18404.370562    350.016122                    
V  5 -10715.467064  21510.741923  15764.309453       .097822                    
P  6  21657.220276  -8117.800761 -12919.299613    592.808370                    
V  6  16521.914816   4040.706165  24728.451446      -.048849                    
P  7  -1164.935062 -15618.889104 -21109.289007    523.741524                    
V  7  27690.384061    835.549885  -2204.973408      -.046453                    
P  8  -3550.199250  20691.910308 -16145.381033    -80.533479                    
V  8  -9269.548789 -18247.613942 -21949.516272      -.013078                    
P  9  17802.696755   9364.355781  16899.827975     37.182084                    
V  9   8428.456803  20909.457663 -19555.328127       .015563                    
P 10   8584.769346  13009.754213 -21559.541793     90.033828                    
V 10 -16887.465111  21282.125982   6446.244374       .005402                    
P 11 -19546.171524  -4414.015055  17476.264978    351.554801                    
V 11 -10186.345978 -20212.609857 -16158.330502       .019134                    
P 13 -20778.865730   7141.239129 -14985.879268     96.607491                    
V 13 -18492.240465  -3741.939818  24043.885935       .034011                    
P 14   3856.043254 -14266.064710  22137.217391     -5.042689                    
V 14  27653.503777   3410.056569  -2696.767315       .007866                    
P 15   3502.109059 -21512.498510 -15011.404586     -4.173142                    
V 15   8742.693472  17054.394547 -23026.975350      -.040642                    
P 16  -5348.169379 -16344.257705 -20132.308561     75.416700                    
V 16  16201.817354 -20060.461032  12053.647583       .033941                    
P 17  -4434.591645  14747.224275  21628.875051     95.042314                    
V 17 -27298.087804  -3201.946233  -3515.493860      -.011643                    
P 18  17931.408778 -19065.799606  -3204.375143   -249.494094                    
V 18   -114.200339   5335.242168 -31521.032968      -.008281                    
P 19 -24511.125293  -8315.845144  -6024.701187     17.847557                    
V 19   8114.068901  -1446.272206 -30411.174406       .032704                    
P 20 -19532.452402   8101.188409  15967.138137    -22.397900                    
V 20  10134.015397 -17893.811118  21383.337288       .002301                    
P 21   9255.213446 -15060.509218 -19574.474838     53.791988                    
V 21  11071.742603  22780.850880 -12782.339982       .018032                    
P 22   9885.687756 -22874.998840   9314.422570    136.260036                    
V 22   9398.506238  -7358.178102 -28561.671708       .030127                    
P 23 -26297.908308    433.590065  -4467.486115    138.056596                    
V 23  -5263.976677  -2864.925471  31154.999415       .002835                    
P 24  -1383.233114  22784.111744  13585.042415     37.992197                    
V 24  -8386.588224 -14971.281570  24920.885195       .030537                    
P 25 -10142.367648 -24136.122264   4364.244820    343.948054                    
V 25   5132.225074   2926.996821  31083.092300       .208698                    
P 26  24205.943169   8605.219799  -8237.368979   -264.241447                    
V 26  -9786.089628    -86.505171 -29796.740608      -.148848                    
P 27  -9405.715123  12981.611550 -20508.463602     69.123565                    
V 27 -13709.946960 -23892.960422  -8882.149608       .019805                    
P 28 -12103.681205  22782.099801   5777.275932     18.167473                    
V 28  -6600.654383   3830.720865 -30838.770238      -.008787                    
P 29  22610.522428   9188.496553 -10613.068503    -27.861065                    
V 29 -13764.453467    243.078590 -28212.699995       .550515                    
P 30  18701.723966 -16344.919372   8947.450526     10.831390                    
V 30  -3938.473487  11605.315789  28603.186419       .012700                    
EOF
